ONEWEB-0545             
1 54647U 22166F   25275.59545964 -.00000039  00000+0 -12681-3 0  9995
2 54647  87.9179 295.3904 0001601  78.2399 281.8914 13.21823526137475
ONEWEB-0580             
1 54648U 22166G   25275.94713498  .00000074  00000+0  14766-3 0  9997
2 54648  87.9180 295.3182 0001920  80.7628 279.3723 13.21825602137560
ONEWEB-0582             
1 54649U 22166H   25275.61123745  .00000064  00000+0  12412-3 0  9997
2 54649  87.9175 295.3787 0001895  77.2225 282.9120 13.21824517137498
ONEWEB-0583             
1 54650U 22166J   25275.62228034  .00000049  00000+0  87570-4 0  9998
2 54650  87.9178 295.4019 0001829  89.6004 270.5339 13.21824394137501
ONEWEB-0584             
1 54651U 22166K   25275.94555829 -.00000016  00000+0 -70722-4 0  9996
2 54651  87.9183 295.3222 0002005  80.3888 279.7472 13.21824487137533
ONEWEB-0585             
1 54652U 22166L   25275.59231072 -.00000036  00000+0 -11824-3 0  9998
2 54652  87.9179 295.3784 0001983  96.0860 264.0500 13.21824247137498
ONEWEB-0586             
1 54653U 22166M   25275.60492845  .00000094  00000+0  19489-3 0  9995
2 54653  87.9179 295.4012 0001812  87.5306 272.6036 13.21825084137494
ONEWEB-0587             
1 54654U 22166N   25275.61438374  .00000108  00000+0  22994-3 0  9995
2 54654  87.9186 295.3479 0002117 102.8474 257.2896 13.21826934137651
